{
  "norad_id": 61515,
  "name": "STARLINK-32136",
  "history": [
    {
      "epoch": "2026-03-28T22:06:07.940736",
      "apogee_km": 476.07094550166585,
      "perigee_km": 474.29840238391716,
      "latitude_deg": 40.21018571473769,
      "longitude_deg": 59.90882304008119,
      "semi_major_axis_km": 6853.321673942791,
      "eccentricity": 0.00012932,
      "inclination_deg": 53.1616,
      "raan_deg": 53.3517,
      "arg_perigee_deg": 79.7036,
      "mean_anomaly_deg": 280.4111,
      "mean_motion_rev_day": 15.3021018
    },
    {
      "epoch": "2026-03-29T04:22:22.332288",
      "apogee_km": 476.17284137368733,
      "perigee_km": 474.3210570306128,
      "latitude_deg": -50.36496092555189,
      "longitude_deg": 84.99148031999357,
      "semi_major_axis_km": 6853.38394920215,
      "eccentricity": 0.0001351,
      "inclination_deg": 53.1617,
      "raan_deg": 52.1393,
      "arg_perigee_deg": 78.0203,
      "mean_anomaly_deg": 282.0949,
      "mean_motion_rev_day": 15.30189323
    }
  ]
}